[{"OBJECT_NAME":"OBJECT C","OBJECT_ID":"2023-104C","EPOCH":"2026-03-09T22:39:44.230752","MEAN_MOTION":15.26846312,"ECCENTRICITY":0.00113074,"INCLINATION":97.273,"RA_OF_ASC_NODE":135.3333,"ARG_OF_PERICENTER":3.876,"MEAN_ANOMALY":356.2565,"EPHEMERIS_TYPE":0,"CLASSIFICATION_TYPE":"U","NORAD_CAT_ID":57426,"ELEMENT_SET_NO":999,"REV_AT_EPOCH":14663,"BSTAR":0.00062618506,"MEAN_MOTION_DOT":0.00016495,"MEAN_MOTION_DDOT":0},{"OBJECT_NAME":"STARLINK-31685","OBJECT_ID":"2024-076Q","EPOCH":"2026-03-09T05:03:49.958496","MEAN_MOTION":15.27574062,"ECCENTRICITY":1.913e-5,"INCLINATION":43.0015,"RA_OF_ASC_NODE":11.3381,"ARG_OF_PERICENTER":282.1997,"MEAN_ANOMALY":77.8834,"EPHEMERIS_TYPE":0,"CLASSIFICATION_TYPE":"U","NORAD_CAT_ID":59578,"ELEMENT_SET_NO":999,"REV_AT_EPOCH":10643,"BSTAR":-6.1183873e-5,"MEAN_MOTION_DOT":-1.944e-5,"MEAN_MOTION_DDOT":0}]
